{"type": "FeatureCollection", "features": [ {"type": "Feature", "properties": {"norad_id": 67028, "name": "STARLINK-36132", "group": "last-30-days", "lat": -67.14262587266333, "lon": -173.87004243793808, "alt_km": 286.6764311236411, "timestamp": "2025-12-18T17:50:13.702938+00:00", "meta": {"OBJECT_NAME": "STARLINK-36132", "OBJECT_ID": "2025-293AB", "EPOCH": "2025-12-17T20:00:01.999872", "MEAN_MOTION": 15.99161897, "ECCENTRICITY": 0.00041134, "INCLINATION": 69.9927, "RA_OF_ASC_NODE": 308.9796, "ARG_OF_PERICENTER": 266.9729, "MEAN_ANOMALY": 158.8076, "EPHEMERIS_TYPE": 0, "CLASSIFICATION_TYPE": "U", "NORAD_CAT_ID": 67028, "ELEMENT_SET_NO": 999, "REV_AT_EPOCH": 238, "BSTAR": -0.002476931, "MEAN_MOTION_DOT": -0.01207009, "MEAN_MOTION_DDOT": 0.00046094304}, "tle": {"line1": "1 67028U 25293AB  25351.83335648 -.01207009  46094-3 -24769-2 0  9997", "line2": "2 67028  69.9927 308.9796 0004113 266.9729 158.8076 15.99161897  2383"}}, "geometry": {"type": "Point", "coordinates": [-173.87004243793808, -67.14262587266333]}}, {"type": "Feature", "properties": {"norad_id": 67029, "name": "STARLINK-36190", "group": "last-30-days", "lat": -65.9138542794871, "lon": -179.08442793191048, "alt_km": 286.8890623197094, "timestamp": "2025-12-18T17:50:13.702951+00:00", "meta": {"OBJECT_NAME": "STARLINK-36190", "OBJECT_ID": "2025-293AC", "EPOCH": "2025-12-17T20:00:01.999872", "MEAN_MOTION": 15.99071595, "ECCENTRICITY": 0.00041451, "INCLINATION": 69.9929, "RA_OF_ASC_NODE": 308.9822, "ARG_OF_PERICENTER": 267.261, "MEAN_ANOMALY": 156.3872, "EPHEMERIS_TYPE": 0, "CLASSIFICATION_TYPE": "U", "NORAD_CAT_ID": 67029, "ELEMENT_SET_NO": 999, "REV_AT_EPOCH": 238, "BSTAR": -0.002480808, "MEAN_MOTION_DOT": -0.01202844, "MEAN_MOTION_DDOT": 0.00045756265}, "tle": {"line1": "1 67029U 25293AC  25351.83335648 -.01202844  45756-3 -24808-2 0  9998", "line2": "2 67029  69.9929 308.9822 0004145 267.2610 156.3872 15.99071595  2386"}}, "geometry": {"type": "Point", "coordinates": [-179.08442793191048, -65.9138542794871]}}, {"type": "Feature", "properties": {"norad_id": 67030, "name": "STARLINK-36138", "group": "last-30-days", "lat": -29.659865063316243, "lon": 3.3197722192614987, "alt_km": 296.885553368963, "timestamp": "2025-12-18T17:50:13.702961+00:00", "meta": {"OBJECT_NAME": "STARLINK-36138", "OBJECT_ID": "2025-294A", "EPOCH": "2025-12-17T20:00:01.999872", "MEAN_MOTION": 15.94764944, "ECCENTRICITY": 0.00017504, "INCLINATION": 42.9997, "RA_OF_ASC_NODE": 151.3229, "ARG_OF_PERICENTER": 276.2491, "MEAN_ANOMALY": 123.7728, "EPHEMERIS_TYPE": 0, "CLASSIFICATION_TYPE": "U", "NORAD_CAT_ID": 67030, "ELEMENT_SET_NO": 999, "REV_AT_EPOCH": 212, "BSTAR": -0.0031885199, "MEAN_MOTION_DOT": -0.01268019, "MEAN_MOTION_DDOT": 0.00047924982}, "tle": {"line1": "1 67030U 25294A   25351.83335648 -.01268019  47925-3 -31885-2 0  9990", "line2": "2 67030  42.9997 151.3229 0001750 276.2491 123.7728 15.94764944  2123"}}, "geometry": {"type": "Point", "coordinates": [3.3197722192614987, -29.659865063316243]}}, {"type": "Feature", "properties": {"norad_id": 67031, "name": "STARLINK-36150", "group": "last-30-days", "lat": -30.35064365847135, "lon": 4.575893025606587, "alt_km": 296.85722831276235, "timestamp": "2025-12-18T17:50:13.702971+00:00", "meta": {"OBJECT_NAME": "STARLINK-36150", "OBJECT_ID": "2025-294B", "EPOCH": "2025-12-17T20:00:01.999872", "MEAN_MOTION": 15.94817296, "ECCENTRICITY": 0.00017782, "INCLINATION": 42.9998, "RA_OF_ASC_NODE": 151.3199, "ARG_OF_PERICENTER": 280.5255, "MEAN_ANOMALY": 120.6122, "EPHEMERIS_TYPE": 0, "CLASSIFICATION_TYPE": "U", "NORAD_CAT_ID": 67031, "ELEMENT_SET_NO": 999, "REV_AT_EPOCH": 212, "BSTAR": -0.003174128, "MEAN_MOTION_DOT": -0.01265886, "MEAN_MOTION_DDOT": 0.00047802534}, "tle": {"line1": "1 67031U 25294B   25351.83335648 -.01265886  47803-3 -31741-2 0  9996", "line2": "2 67031  42.9998 151.3199 0001778 280.5255 120.6122 15.94817296  2120"}}, "geometry": {"type": "Point", "coordinates": [4.575893025606587, -30.35064365847135]}}, {"type": "Feature", "properties": {"norad_id": 67032, "name": "STARLINK-36131", "group": "last-30-days", "lat": -32.06578239370348, "lon": 7.8817411557629, "alt_km": 296.34442118900915, "timestamp": "2025-12-18T17:50:13.702983+00:00", "meta": {"OBJECT_NAME": "STARLINK-36131", "OBJECT_ID": "2025-294C", "EPOCH": "2025-12-17T20:00:01.999872", "MEAN_MOTION": 15.94973854, "ECCENTRICITY": 0.00016953, "INCLINATION": 42.9998, "RA_OF_ASC_NODE": 151.3126, "ARG_OF_PERICENTER": 273.2681, "MEAN_ANOMALY": 130.7083, "EPHEMERIS_TYPE": 0, "CLASSIFICATION_TYPE": "U", "NORAD_CAT_ID": 67032, "ELEMENT_SET_NO": 999, "REV_AT_EPOCH": 212, "BSTAR": -0.0031837685, "MEAN_MOTION_DOT": -0.01280305, "MEAN_MOTION_DDOT": 0.00048880162}, "tle": {"line1": "1 67032U 25294C   25351.83335648 -.01280305  48880-3 -31838-2 0  9993", "line2": "2 67032  42.9998 151.3126 0001695 273.2681 130.7083 15.94973854  2122"}}, "geometry": {"type": "Point", "coordinates": [7.8817411557629, -32.06578239370348]}}, {"type": "Feature", "properties": {"norad_id": 67033, "name": "STARLINK-36137", "group": "last-30-days", "lat": -31.205953465398647, "lon": 6.189274801722411, "alt_km": 296.5765786473421, "timestamp": "2025-12-18T17:50:13.702993+00:00", "meta": {"OBJECT_NAME": "STARLINK-36137", "OBJECT_ID": "2025-294D", "EPOCH": "2025-12-17T20:00:01.999872", "MEAN_MOTION": 15.94895855, "ECCENTRICITY": 0.00017749, "INCLINATION": 42.9998, "RA_OF_ASC_NODE": 151.3166, "ARG_OF_PERICENTER": 276.4167, "MEAN_ANOMALY": 126.1219, "EPHEMERIS_TYPE": 0, "CLASSIFICATION_TYPE": "U", "NORAD_CAT_ID": 67033, "ELEMENT_SET_NO": 999, "REV_AT_EPOCH": 212, "BSTAR": -0.0031853014, "MEAN_MOTION_DOT": -0.01275618, "MEAN_MOTION_DDOT": 0.00048515264}, "tle": {"line1": "1 67033U 25294D   25351.83335648 -.01275618  48515-3 -31853-2 0  9997", "line2": "2 67033  42.9998 151.3166 0001774 276.4167 126.1219 15.94895855  2123"}}, "geometry": {"type": "Point", "coordinates": [6.189274801722411, -31.205953465398647]}}, {"type": "Feature", "properties": {"norad_id": 67034, "name": "STARLINK-36140", "group": "last-30-days", "lat": -32.978250134133326, "lon": 9.76660744834562, "alt_km": 296.21407017053025, "timestamp": "2025-12-18T17:50:13.703022+00:00", "meta": {"OBJECT_NAME": "STARLINK-36140", "OBJECT_ID": "2025-294E", "EPOCH": "2025-12-17T20:00:01.999872", "MEAN_MOTION": 15.9506516, "ECCENTRICITY": 0.00017156, "INCLINATION": 42.9999, "RA_OF_ASC_NODE": 151.309, "ARG_OF_PERICENTER": 275.5249, "MEAN_ANOMALY": 130.0295, "EPHEMERIS_TYPE": 0, "CLASSIFICATION_TYPE": "U", "NORAD_CAT_ID": 67034, "ELEMENT_SET_NO": 999, "REV_AT_EPOCH": 212, "BSTAR": -0.0032034501, "MEAN_MOTION_DOT": -0.01294426, "MEAN_MOTION_DDOT": 0.000499169}, "tle": {"line1": "1 67034U 25294E   25351.83335648 -.01294426  49917-3 -32035-2 0  9996", "line2": "2 67034  42.9999 151.3090 0001715 275.5249 130.0295 15.95065160  2124"}}, "geometry": {"type": "Point", "coordinates": [9.76660744834562, -32.978250134133326]}}, {"type": "Feature", "properties": {"norad_id": 67035, "name": "STARLINK-36085", "group": "last-30-days", "lat": -34.75212138972968, "lon": 13.742242898662306, "alt_km": 295.8803340674667, "timestamp": "2025-12-18T17:50:13.703034+00:00", "meta": {"OBJECT_NAME": "STARLINK-36085", "OBJECT_ID": "2025-294F", "EPOCH": "2025-12-17T20:00:01.999872", "MEAN_MOTION": 15.95243, "ECCENTRICITY": 0.0001773, "INCLINATION": 42.9999, "RA_OF_ASC_NODE": 151.3007, "ARG_OF_PERICENTER": 280.3093, "MEAN_ANOMALY": 128.4504, "EPHEMERIS_TYPE": 0, "CLASSIFICATION_TYPE": "U", "NORAD_CAT_ID": 67035, "ELEMENT_SET_NO": 999, "REV_AT_EPOCH": 212, "BSTAR": -0.0031989221, "MEAN_MOTION_DOT": -0.0130497, "MEAN_MOTION_DDOT": 0.00050754214}, "tle": {"line1": "1 67035U 25294F   25351.83335648 -.01304970  50754-3 -31989-2 0  9991", "line2": "2 67035  42.9999 151.3007 0001773 280.3093 128.4504 15.95243000  2123"}}, "geometry": {"type": "Point", "coordinates": [13.742242898662306, -34.75212138972968]}}, {"type": "Feature", "properties": {"norad_id": 67036, "name": "STARLINK-36125", "group": "last-30-days", "lat": -33.8807128447463, "lon": 11.732720170283576, "alt_km": 296.01219438193857, "timestamp": "2025-12-18T17:50:13.703043+00:00", "meta": {"OBJECT_NAME": "STARLINK-36125", "OBJECT_ID": "2025-294G", "EPOCH": "2025-12-17T20:00:01.999872", "MEAN_MOTION": 15.95151961, "ECCENTRICITY": 0.0001675, "INCLINATION": 42.9998, "RA_OF_ASC_NODE": 151.3048, "ARG_OF_PERICENTER": 275.4046, "MEAN_ANOMALY": 131.7507, "EPHEMERIS_TYPE": 0, "CLASSIFICATION_TYPE": "U", "NORAD_CAT_ID": 67036, "ELEMENT_SET_NO": 999, "REV_AT_EPOCH": 212, "BSTAR": -0.0031961879, "MEAN_MOTION_DOT": -0.01297515, "MEAN_MOTION_DDOT": 0.00050178902}, "tle": {"line1": "1 67036U 25294G   25351.83335648 -.01297515  50179-3 -31962-2 0  9990", "line2": "2 67036  42.9998 151.3048 0001675 275.4046 131.7507 15.95151961  2126"}}, "geometry": {"type": "Point", "coordinates": [11.732720170283576, -33.8807128447463]}}, {"type": "Feature", "properties": {"norad_id": 67037, "name": "STARLINK-35732", "group": "last-30-days", "lat": -35.652941124745425, "lon": 15.95472380423651, "alt_km": 295.65263011174466, "timestamp": "2025-12-18T17:50:13.703054+00:00", "meta": {"OBJECT_NAME": "STARLINK-35732", "OBJECT_ID": "2025-294H", "EPOCH": "2025-12-17T20:00:01.999872", "MEAN_MOTION": 15.95339918, "ECCENTRICITY": 0.00017942, "INCLINATION": 42.9999, "RA_OF_ASC_NODE": 151.2965, "ARG_OF_PERICENTER": 280.1039, "MEAN_ANOMALY": 130.3987, "EPHEMERIS_TYPE": 0, "CLASSIFICATION_TYPE": "U", "NORAD_CAT_ID": 67037, "ELEMENT_SET_NO": 999, "REV_AT_EPOCH": 212, "BSTAR": -0.0032136783, "MEAN_MOTION_DOT": -0.01317743, "MEAN_MOTION_DDOT": 0.00051717762}, "tle": {"line1": "1 67037U 25294H   25351.83335648 -.01317743  51718-3 -32137-2 0  9992", "line2": "2 67037  42.9999 151.2965 0001794 280.1039 130.3987 15.95339918  2129"}}, "geometry": {"type": "Point", "coordinates": [15.95472380423651, -35.652941124745425]}}]}